NORAD_CAT_ID,OBJECT_NAME,OBJECT_TYPE,EPOCH,MEAN_MOTION,ECCENTRICITY,INCLINATION,RA_OF_ASC_NODE,ARG_OF_PERICENTER,MEAN_ANOMALY,BSTAR,MEAN_MOTION_DOT,MEAN_MOTION_DDOT,TLE_LINE0,TLE_LINE1,TLE_LINE2,SEMIMAJOR_AXIS,PERIOD,APOGEE,PERIGEE,DECAYED
52635.0,STARLINK-3978,PAYLOAD,2023-10-22 22:35:18,15.08823882,0.0002035,53.2154,199.0844,100.5234,259.5987,0.0010203,0.0001598,0.0,0 STARLINK-3978,1 52635U 22052AP  23295.94118617  .00015980  00000-0  10203-2 0  9991,2 52635  53.2154 199.0844 0002035 100.5234 259.5987 15.08823882 79986,6917.93,95.439,541.202,538.387,0.0
52635.0,STARLINK-3978,PAYLOAD,2023-10-23 00:10:41,15.08818928,0.0001785,53.2169,198.7867,105.9828,254.1361,0.0010681,0.00016742,0.0,0 STARLINK-3978,1 52635U 22052AP  23296.00742660  .00016742  00000-0  10681-2 0  9997,2 52635  53.2169 198.7867 0001785 105.9828 254.1361 15.08818928 80368,6917.945,95.439,541.045,538.575,0.0
52635.0,STARLINK-3978,PAYLOAD,2023-10-23 22:26:06,15.08839284,0.0001796,53.217,194.6232,107.8267,252.2921,0.00088276,0.00013789,0.0,0 STARLINK-3978,1 52635U 22052AP  23296.93479424  .00013789  00000-0  88276-3 0  9998,2 52635  53.2170 194.6232 0001796 107.8267 252.2921 15.08839284 80135,6917.883,95.438,540.99,538.505,0.0
52635.0,STARLINK-3978,PAYLOAD,2023-10-24 03:12:15,15.08849957,0.0001671,53.2173,193.732,102.4354,257.6826,0.0010084,0.00015801,0.0,0 STARLINK-3978,1 52635U 22052AP  23297.13351346  .00015801  00000-0  10084-2 0  9991,2 52635  53.2173 193.7320 0001671 102.4354 257.6826 15.08849957 80531,6917.85,95.437,540.871,538.559,0.0
52635.0,STARLINK-3978,PAYLOAD,2023-10-25 03:03:02,15.08848668,0.0001771,53.2171,189.2712,101.8165,258.3025,0.00061915,9.582e-05,0.0,0 STARLINK-3978,1 52635U 22052AP  23298.12711326  .00009582  00000-0  61915-3 0  9998,2 52635  53.2171 189.2712 0001771 101.8165 258.3025 15.08848668 80681,6917.854,95.437,540.944,538.494,0.0
52635.0,STARLINK-3978,PAYLOAD,2023-10-25 20:32:17,15.08840906,0.0001892,53.2173,185.9992,111.0241,249.0953,9.6554e-05,1.249e-05,0.0,0 STARLINK-3978,1 52635U 22052AP  23298.85575433  .00001249  00000-0  96554-4 0  9995,2 52635  53.2173 185.9992 0001892 111.0241 249.0953 15.08840906 80424,6917.878,95.437,541.051,538.434,0.0
52635.0,STARLINK-3978,PAYLOAD,2023-10-26 01:18:26,15.08846372,0.0001508,53.2163,185.108,94.6737,265.4428,0.0002167,3.163e-05,0.0,0 STARLINK-3978,1 52635U 22052AP  23299.05447364  .00003163  00000-0  21670-3 0  9992,2 52635  53.2163 185.1080 0001508  94.6737 265.4428 15.08846372 80829,6917.861,95.437,540.769,538.683,0.0
52635.0,STARLINK-3978,PAYLOAD,2023-10-26 20:23:04,15.08846081,0.0001491,53.2165,181.54,94.1387,265.9775,0.00016989,2.417e-05,0.0,0 STARLINK-3978,1 52635U 22052AP  23299.84935276  .00002417  00000-0  16989-3 0  9991,2 52635  53.2165 181.5400 0001491  94.1387 265.9775 15.08846081 80573,6917.862,95.437,540.758,538.695,0.0
52635.0,STARLINK-3978,PAYLOAD,2023-10-27 09:06:08,15.08850073,0.0001096,53.2175,179.1601,85.6369,274.4748,0.00024784,3.66e-05,0.0,0 STARLINK-3978,1 52635U 22052AP  23300.37926808  .00003660  00000-0  24784-3 0  9996,2 52635  53.2175 179.1601 0001096  85.6369 274.4748 15.08850073 81028,6917.85,95.437,540.473,538.956,0.0
52635.0,STARLINK-3978,PAYLOAD,2023-10-27 21:49:14,15.08836625,0.0001978,53.2168,176.7839,82.0702,278.0515,-4.9139e-05,-1.07e-05,0.0,0 STARLINK-3978,1 52635U 22052AP  23300.90919606 -.00001070  00000-0 -49139-4 0  9990,2 52635  53.2168 176.7839 0001978  82.0702 278.0515 15.08836625 80733,6917.891,95.438,541.124,538.387,0.0
52635.0,STARLINK-3978,PAYLOAD,2023-10-27 23:24:37,15.08839645,0.0001509,53.2166,176.4867,86.7658,273.3506,1.324e-05,-7.7e-07,0.0,0 STARLINK-3978,1 52635U 22052AP  23300.97543460 -.00000077  00000-0  13240-4 0  9997,2 52635  53.2166 176.4867 0001509  86.7658 273.3506 15.08839645 81116,6917.881,95.438,540.79,538.703,0.0
52635.0,STARLINK-3978,PAYLOAD,2023-10-28 08:56:56,15.08835348,0.0001401,53.2154,174.7008,87.3365,272.7787,-4.3687e-05,-9.83e-06,0.0,0 STARLINK-3978,1 52635U 22052AP  23301.37287533 -.00000983  00000-0 -43687-4 0  9993,2 52635  53.2154 174.7008 0001401  87.3365 272.7787 15.08835348 80809,6917.895,95.438,540.729,538.79,0.0
52635.0,STARLINK-3978,PAYLOAD,2023-10-28 21:40:01,15.08838855,0.0001082,53.2164,172.3223,82.8164,277.2952,8.3116e-05,1.035e-05,0.0,0 STARLINK-3978,1 52635U 22052AP  23301.90279564  .00001035  00000-0  83116-4 0  9995,2 52635  53.2164 172.3223 0001082  82.8164 277.2952 15.08838855 80883,6917.884,95.438,540.497,539.0,0.0
52635.0,STARLINK-3978,PAYLOAD,2023-10-29 00:50:47,15.08849457,0.0001284,53.2155,171.727,85.2858,274.8281,0.00029496,4.411e-05,0.0,0 STARLINK-3978,1 52635U 22052AP  23302.03527224  .00004411  00000-0  29496-3 0  9990,2 52635  53.2155 171.7270 0001284  85.2858 274.8281 15.08849457 81271,6917.851,95.437,540.605,538.828,0.0
52635.0,STARLINK-3978,PAYLOAD,2023-10-29 08:47:43,15.08843215,0.0001372,53.2153,170.2401,89.4448,270.6701,0.00016798,2.387e-05,0.0,0 STARLINK-3978,1 52635U 22052AP  23302.36647487  .00002387  00000-0  16798-3 0  9991,2 52635  53.2153 170.2401 0001372  89.4448 270.6701 15.08843215 81321,6917.871,95.437,540.685,538.786,0.0
52635.0,STARLINK-3978,PAYLOAD,2023-10-29 21:30:41,15.09074499,0.0003044,53.2163,167.8602,117.1919,242.9384,0.0046787,0.00075459,0.0,0 STARLINK-3978,1 52635U 22052AP  23302.89631005  .00075459  00000-0  46787-2 0  9998,2 52635  53.2163 167.8602 0003044 117.1919 242.9384 15.09074499 81035,6917.164,95.423,541.134,536.923,0.0
52635.0,STARLINK-3978,PAYLOAD,2023-10-30 00:41:34,15.08887224,0.0003435,53.2165,167.2659,64.3582,295.7765,0.0011156,0.00017535,0.0,0 STARLINK-3978,1 52635U 22052AP  23303.02886688  .00017535  00000-0  11156-2 0  9996,2 52635  53.2165 167.2659 0003435  64.3582 295.7765 15.08887224 81425,6917.736,95.435,541.977,537.225,0.0
52635.0,STARLINK-3978,PAYLOAD,2023-10-30 08:38:30,15.08856187,0.000339,53.2164,165.7792,91.3243,268.8138,0.00046313,7.094e-05,0.0,0 STARLINK-3978,1 52635U 22052AP  23303.36007713  .00007094  00000-0  46313-3 0  9990,2 52635  53.2164 165.7792 0003390  91.3243 268.8138 15.08856187 81473,6917.831,95.437,542.041,537.351,0.0
52635.0,STARLINK-3978,PAYLOAD,2023-10-30 21:21:35,15.08838197,0.0001731,53.2164,163.4007,103.1617,256.9569,4.9017e-05,4.92e-06,0.0,0 STARLINK-3978,1 52635U 22052AP  23303.88999782  .00000492  00000-0  49017-4 0  9993,2 52635  53.2164 163.4007 0001731 103.1617 256.9569 15.08838197 81557,6917.886,95.438,540.948,538.553,0.0
52635.0,STARLINK-3978,PAYLOAD,2023-10-31 00:32:22,15.08842468,0.0001764,53.2158,162.8059,101.7043,258.4147,0.00015422,2.167e-05,0.0,0 STARLINK-3978,1 52635U 22052AP  23304.02247802  .00002167  00000-0  15422-3 0  9992,2 52635  53.2158 162.8059 0001764 101.7043 258.4147 15.08842468 81200,6917.873,95.437,540.958,538.518,0.0
52635.0,STARLINK-3978,PAYLOAD,2023-10-31 21:12:23,15.08840074,0.0001719,53.2154,158.9387,106.2115,253.9067,0.00040009,6.085e-05,0.0,0 STARLINK-3978,1 52635U 22052AP  23304.88360188  .00006085  00000-0  40009-3 0  9991,2 52635  53.2154 158.9387 0001719 106.2115 253.9067 15.08840074 81332,6917.88,95.438,540.934,538.556,0.0
52635.0,STARLINK-3978,PAYLOAD,2023-11-01 21:03:10,15.08842871,0.0001449,53.216,154.4808,96.1952,263.9205,0.00019653,2.841e-05,0.0,0 STARLINK-3978,1 52635U 22052AP  23305.87719915  .00002841  00000-0  19653-3 0  9994,2 52635  53.2160 154.4808 0001449  96.1952 263.9205 15.08842871 81853,6917.872,95.437,540.739,538.734,0.0
52635.0,STARLINK-3978,PAYLOAD,2023-11-02 06:35:28,15.08842481,0.000136,53.2159,152.6954,93.2587,266.8561,0.00013072,1.793e-05,0.0,0 STARLINK-3978,1 52635U 22052AP  23306.27463865  .00001793  00000-0  13072-3 0  9993,2 52635  53.2159 152.6954 0001360  93.2587 266.8561 15.08842481 81547,6917.873,95.437,540.679,538.797,0.0
52635.0,STARLINK-3978,PAYLOAD,2023-11-02 20:53:57,15.08838502,0.0001498,53.2168,150.0226,100.5697,259.5464,-8.3949e-06,-4.22e-06,0.0,0 STARLINK-3978,1 52635U 22052AP  23306.87080073 -.00000422  00000-0 -83949-5 0  9997,2 52635  53.2168 150.0226 0001498 100.5697 259.5464 15.08838502 82009,6917.885,95.438,540.786,538.714,0.0
52635.0,STARLINK-3978,PAYLOAD,2023-11-03 14:23:11,15.08840412,0.0001261,53.2155,146.7491,92.0942,268.0195,1.5772e-05,-3.7e-07,0.0,0 STARLINK-3978,1 52635U 22052AP  23307.59944012 -.00000037  00000-0  15772-4 0  9998,2 52635  53.2155 146.7491 0001261  92.0942 268.0195 15.08840412 81746,6917.879,95.438,540.616,538.872,0.0
52635.0,STARLINK-3978,PAYLOAD,2023-11-03 22:20:07,15.08846316,0.0001278,53.2168,145.2622,92.8817,267.2322,8.3055e-05,1.034e-05,0.0,0 STARLINK-3978,1 52635U 22052AP  23307.93063776  .00001034  00000-0  83055-4 0  9991,2 52635  53.2168 145.2622 0001278  92.8817 267.2322 15.08846316 81794,6917.861,95.437,540.61,538.842,0.0
52635.0,STARLINK-3978,PAYLOAD,2023-11-04 06:17:03,15.08840506,0.0001273,53.2169,143.7754,92.1945,267.9193,4.3812e-05,4.09e-06,0.0,0 STARLINK-3978,1 52635U 22052AP  23308.26184214  .00000409  00000-0  43812-4 0  9991,2 52635  53.2169 143.7754 0001273  92.1945 267.9193 15.08840506 82210,6917.879,95.438,540.624,538.863,0.0
52635.0,STARLINK-3978,PAYLOAD,2023-11-04 20:35:31,15.08840542,0.0001276,53.2168,141.0988,88.649,271.4649,5.5013e-05,5.88e-06,0.0,0 STARLINK-3978,1 52635U 22052AP  23308.85800391  .00000588  00000-0  55013-4 0  9991,2 52635  53.2168 141.0988 0001276  88.6490 271.4649 15.08840542 81931,6917.879,95.438,540.626,538.861,0.0
52635.0,STARLINK-3978,PAYLOAD,2023-11-05 12:29:22,15.08847902,0.0001273,53.2166,138.125,88.9645,271.1493,0.00010408,1.369e-05,0.0,0 STARLINK-3978,1 52635U 22052AP  23309.52039768  .00001369  00000-0  10408-3 0  9994,2 52635  53.2166 138.1250 0001273  88.9645 271.1493 15.08847902 82404,6917.856,95.437,540.602,538.841,0.0
52635.0,STARLINK-3978,PAYLOAD,2023-11-05 20:26:17,15.08860971,0.0001305,53.216,136.6384,89.4414,270.6727,0.00034345,5.185e-05,0.0,0 STARLINK-3978,1 52635U 22052AP  23309.85159134  .00005185  00000-0  34345-3 0  9996,2 52635  53.2160 136.6384 0001305  89.4414 270.6727 15.08860971 82084,6917.816,95.436,540.584,538.779,0.0
